IRIDIUM 921             
1 24873U 97034E   24216.59223470  .00035712  00000+0  81268-3 0  9999
2 24873  86.3771 264.5805 0005782  88.6623 271.5295 15.42799891482485
IRIDIUM 26              
1 24903U 97043A   24216.55906800  .00000692  00000+0  22938-3 0  9992
2 24903  86.3926 243.8736 0002504  89.7861 270.3623 14.36461060411131
DUMMY MASS 2            
1 24926U 97048B   24216.56807993  .00000750  00000+0  82466-4 0  9994
2 24926  86.3334 283.6480 0007032 185.4049 174.7101 14.86072678457721
IRIDIUM 29              
1 24944U 97051A   24216.56971460  .00000651  00000+0  21842-3 0  9999
2 24944  86.3934 277.0383 0002141  99.2209 260.9230 14.35800813407687
IRIDIUM 33              
1 24946U 97051C   24216.57145535  .00000460  00000+0  15641-3 0  9996
2 24946  86.3849 276.2860 0009316  47.0509 313.1467 14.34436505407203
IRIDIUM 28              
1 24948U 97051E   24216.61181296  .00000658  00000+0  21649-3 0  9991
2 24948  86.3938 274.7156 0002597  86.5700 273.5794 14.36756250408230
